{
"type": "FeatureCollection",
"name": "Maynooth DZ",
"crs": { "type": "name", "properties": { "name": "urn:ogc:def:crs:EPSG::2157" } },
"features": [
{"type":"Feature","properties":{"fid":1.0,"Name":"Maynooth DZ"},"geometry":{"type":"MultiPolygon","coordinates":[[[[691802.351191048277542,738642.680509467492811],[691802.603422316489741,738641.061844820855185],[692579.054289237828925,738886.067562436219305],[692580.289786674897186,738887.349301394540817],[692450.303482800838538,739615.568563207285479],[692538.1536364632193,739602.71583598991856],[692714.993345608469099,739518.776289890171029],[692879.39719479274936,739511.067100968211889],[692964.282415673136711,739509.998205945710652],[693437.434306802693754,739393.661964321974665],[693594.352536993101239,739349.414793289499357],[693716.434393300209194,739267.158281324314885],[694091.284718508482911,738955.92648699588608],[694202.853384198737331,738852.525458988267928],[694260.834667686140165,738782.20361785357818],[694277.509363102610223,738769.787900204071775],[694324.837199712754227,738753.428751506260596],[694368.389431645162404,738743.368431195616722],[694445.259722328046337,738733.060781042440794],[694502.476001763483509,738701.421380928368308],[694556.841437043971382,738629.66284208081197],[694680.643006931291893,738600.262131250463426],[694657.661163147189654,738516.944996478152461],[694968.860287702409551,737925.804919081158005],[694975.933363770600408,737754.739242383395322],[695549.076960225822404,737580.452290513901971],[695478.269758919952437,737469.739081520121545],[695293.132348972605541,737232.862422834383324],[695070.522331298096105,737042.595296774641611],[694856.91302368871402,736400.702007022220641],[694880.587101555429399,736358.359962201677263],[694858.40036449150648,736280.484839744749479],[694763.619616064010188,736316.8539043123601],[694694.607971818186343,736114.150410508271307],[694504.667670435970649,736114.01229873590637],[694452.929166627465747,736006.395136625389569],[694485.088784774765372,735950.550957372412086],[694514.438077431404963,735898.294568408979103],[694533.492679440998472,735858.587631850736216],[694461.556625340832397,735848.046393838245422],[694392.015163701260462,735854.863774034543894],[694333.048711520270444,735881.024053786997683],[694295.476446513552219,735887.566564419656061],[694242.638442597934045,735881.051947171334177],[694189.980849159415811,735865.431048596976325],[694138.073407514952123,735858.024984244140796],[694057.722457307158038,735857.344688373501413],[693961.978738338919356,735849.983997012022883],[693882.432625083369203,735854.78885445499327],[693759.532396601280198,735881.515298068989068],[693755.467598811374046,735902.388912469265051],[693751.061407966073602,735940.565238170675002],[693748.606626227148809,736203.796239506453276],[693672.987300632055849,736195.016785329557024],[693586.932168121915311,736206.074419601005502],[693482.173436529119499,736239.53971647284925],[692223.303629456553608,736691.343015065300278],[692032.77729580423329,737194.063295361935161],[691993.706855867989361,737231.558549223002046],[691895.807929087430239,737289.773171214852482],[691837.642541022389196,737370.614916825317778],[691859.016122633125633,737398.350302596227266],[691797.835961346863769,737446.346443397807889],[691724.647562481695786,737643.465156615478918],[691787.217100908048451,737806.7730363617884],[691877.381373863550834,737770.269289518357255],[691886.013140700641088,737795.934730900684372],[691826.944347509299405,737829.396774258697405],[691872.836907601216808,738005.125834677484818],[691903.641401552595198,738111.352214031037875],[691912.652199985808693,738211.691069734748453],[691909.347145780106075,738288.114863719441928],[691893.79729394603055,738336.983911500195973],[691869.088684691349044,738387.496331223170273],[691821.990678634843789,738463.070037682424299],[691806.717940396862105,738592.067766197375022],[691802.012456724769436,738646.606604598229751],[691802.351191048277542,738642.680509467492811]]]]}}
]
}
